{
    "links": {
        "self": "http://www.neowsapp.com/rest/v1/neo/3879143?api_key=iIulBulltgU6a56xZRHN4H3l9WmuAYTsLGpBGhQ2"
    },
    "id": "3879143",
    "neo_reference_id": "3879143",
    "name": "(2019 TR6)",
    "designation": "2019 TR6",
    "nasa_jpl_url": "http://ssd.jpl.nasa.gov/sbdb.cgi?sstr=3879143",
    "absolute_magnitude_h": 24.9,
    "estimated_diameter": {
        "kilometers": {
            "estimated_diameter_min": 0.0278326768,
            "estimated_diameter_max": 0.0622357573
        },
        "meters": {
            "estimated_diameter_min": 27.8326768072,
            "estimated_diameter_max": 62.2357573367
        },
        "miles": {
            "estimated_diameter_min": 0.0172944182,
            "estimated_diameter_max": 0.0386714948
        },
        "feet": {
            "estimated_diameter_min": 91.3145593761,
            "estimated_diameter_max": 204.1855621004
        }
    },
    "is_potentially_hazardous_asteroid": false,
    "close_approach_data": [
        {
            "close_approach_date": "2019-09-21",
            "close_approach_date_full": "2019-Sep-21 20:01",
            "epoch_date_close_approach": 1569096060000,
            "relative_velocity": {
                "kilometers_per_second": "8.584844263",
                "kilometers_per_hour": "30905.4393466216",
                "miles_per_hour": "19203.4381317938"
            },
            "miss_distance": {
                "astronomical": "0.0641733083",
                "lunar": "24.9634169287",
                "kilometers": "9600190.232533321",
                "miles": "5965281.5967129898"
            },
            "orbiting_body": "Earth"
        }
    ],
    "orbital_data": {
        "orbit_id": "1",
        "orbit_determination_date": "2019-10-10 14:42:03",
        "first_observation_date": "2019-10-08",
        "last_observation_date": "2019-10-10",
        "data_arc_in_days": 2,
        "observations_used": 14,
        "orbit_uncertainty": "9",
        "minimum_orbit_intersection": ".04351",
        "jupiter_tisserand_invariant": "3.592",
        "epoch_osculation": "2458766.5",
        "eccentricity": ".5155182459852854",
        "semi_major_axis": "2.059334503206645",
        "inclination": "8.773622684571814",
        "ascending_node_longitude": "199.6468175615749",
        "orbital_period": "1079.415800074417",
        "perihelion_distance": ".9977099922165762",
        "perihelion_argument": "143.0168616349455",
        "aphelion_distance": "3.120959014196714",
        "perihelion_time": "2458733.787285303817",
        "mean_anomaly": "10.91013980878729",
        "mean_motion": ".3335137395387217",
        "equinox": "J2000",
        "orbit_class": {
            "orbit_class_type": "APO",
            "orbit_class_description": "Near-Earth asteroid orbits which cross the Earth’s orbit similar to that of 1862 Apollo",
            "orbit_class_range": "a (semi-major axis) > 1.0 AU; q (perihelion) < 1.017 AU"
        }
    },
    "is_sentry_object": false
}